ONEWEB-0264             
1 48982U 21060R   24024.61129377 -.00000030  00000+0 -11156-3 0  9999
2 48982  87.9041  42.8478 0001902  92.5649 267.5700 13.16595315125804
ONEWEB-0266             
1 48984U 21060T   24024.55666381  .00000111  00000+0  25641-3 0  9997
2 48984  87.9038  42.8402 0001745  87.2778 272.8552 13.16592942125793
ONEWEB-0267             
1 48985U 21060U   24024.94773560  .00000088  00000+0  19664-3 0  9990
2 48985  87.9038  42.7629 0002193  98.3901 261.7479 13.16593138124559
ONEWEB-0268             
1 48986U 21060V   24024.61209261 -.00000071  00000+0 -21842-3 0  9992
2 48986  87.9039  42.8358 0001898  99.1177 261.0168 13.16593614126061
ONEWEB-0269             
1 48987U 21060W   24024.59309125  .00000072  00000+0  15541-3 0  9998
2 48987  87.9043  42.8607 0001741  92.9926 267.1404 13.16595165125842
ONEWEB-0270             
1 48988U 21060X   24024.61050003 -.00000069  00000+0 -21396-3 0  9993
2 48988  87.9038  42.8461 0002497  89.8289 270.3128 13.16587893125894
ONEWEB-0271             
1 48989U 21060Y   24024.59783803  .00000020  00000+0  18822-4 0  9998
2 48989  87.9039  42.8234 0002235  94.5262 265.6125 13.16597415125871
ONEWEB-0272             
1 48990U 21060Z   24025.45596533 -.00000038  00000+0 -13400-3 0  9995
2 48990  87.9039  42.6794 0002134  96.9577 263.1797 13.16595763125945
